STARLINK-5487           
1 55652U 23021AA  26068.69390068  .00000299  00000+0  32877-4 0  9994
2 55652  70.0013 184.3814 0003146 267.4295  92.6504 14.98333844168798
ICEYE-X40               
1 60549U 24149CK  26068.75921699  .00003253  00000+0  28352-3 0  9999
2 60549  97.6865 146.8579 0005983  65.2061 294.9783 14.97556326 85195
